OBJECT_NAME,OBJECT_ID,EPOCH,MEAN_MOTION,ECCENTRICITY,INCLINATION,RA_OF_ASC_NODE,ARG_OF_PERICENTER,MEAN_ANOMALY,EPHEMERIS_TYPE,CLASSIFICATION_TYPE,NORAD_CAT_ID,ELEMENT_SET_NO,REV_AT_EPOCH,BSTAR,MEAN_MOTION_DOT,MEAN_MOTION_DDOT
GOMX-1,2013-066Q,2026-07-16T04:37:16.562784,14.69543658,.0128167,97.6464,35.8247,344.9990,14.7429,0,U,39430,999,67417,.96202E-4,.594E-5,0
CUBEBUG-2 (LO-74),2013-066AA,2026-07-15T20:45:32.623488,14.93969667,.00556307,97.8915,145.9709,293.0759,66.4601,0,U,39440,999,68127,.19551178E-3,.2083E-4,0
NEE-02 KRYSAOR,2013-066AB,2026-07-16T01:59:20.054400,14.86741190,.0065323,97.8897,136.0946,336.3601,23.4616,0,U,39441,999,68049,.12704E-3,.1115E-4,0
FUNCUBE-1 (AO-73),2013-066AE,2026-07-15T21:20:20.419872,15.09822727,.00379895,97.8290,168.9436,105.4335,255.1095,0,U,39444,999,68399,.22786592E-3,.3677E-4,0
UWE-3,2013-066AG,2026-07-15T19:42:56.271168,14.97201399,.00475492,97.8715,153.0945,222.4036,137.3508,0,U,39446,999,68186,.1702564E-3,.1951E-4,0
SMDC ONE 2.4,2013-072H,2026-07-15T17:04:39.024192,15.18822636,.01481092,120.4897,102.2633,49.0550,312.3239,0,U,39469,999,12216,.34736576E-3,.9338E-4,0
COSMOS 2488 (RODNIK-S 7),2013-076A,2026-07-16T04:15:17.652960,12.42906038,.002056,82.4856,150.6350,35.4860,324.7583,0,U,39483,999,56949,-.44122E-3,-.51E-6,0
COSMOS 2489 (RODNIK-S 8),2013-076B,2026-07-16T05:36:22.765248,12.42879909,.0022384,82.4891,151.9883,35.0707,325.1842,0,U,39484,999,56955,-.29851E-3,-.31E-6,0
COSMOS 2490 (RODNIK-S 9),2013-076C,2026-07-16T04:55:57.321120,12.42878780,.0022773,82.4839,150.0606,50.0391,310.2684,0,U,39485,999,56948,-.55865E-3,-.67E-6,0
KAZEOSAT 1,2014-024A,2026-07-15T22:55:47.628768,14.42036823,.00012257,98.3203,268.6850,82.1571,277.9758,0,U,39731,999,64270,-.11746508E-4,-.81E-6,0
COSMOS 2496 (RODNIK-S 10),2014-028A,2026-07-15T22:06:58.602240,12.42879267,.00208301,82.4456,90.7352,19.3795,340.8072,0,U,39761,999,55108,.22104584E-3,.4E-6,0
COSMOS 2497 (RODNIK-S 11),2014-028B,2026-07-15T23:26:46.142016,12.42894847,.00213153,82.4506,92.4013,14.3082,345.8597,0,U,39762,999,55109,-.23640788E-3,-.23E-6,0
COSMOS 2498 (RODNIK-S 12),2014-028C,2026-07-15T22:51:39.062016,12.42980616,.00220195,82.4466,90.8912,13.9069,346.2613,0,U,39763,999,55112,-.10146079E-3,-.4E-7,0
HODOYOSHI-4,2014-033B,2026-07-16T03:33:44.860032,14.88192558,.002268,97.5453,20.5745,206.1866,153.8206,0,U,40011,999,65311,.114E-3,.1003E-4,0
UNISAT-6,2014-033C,2026-07-15T23:24:42.966720,14.88368249,.0044121,97.7909,349.1880,335.1542,24.7549,0,U,40012,999,65044,.12208E-3,.1093E-4,0
DEIMOS-2,2014-033D,2026-07-16T04:31:13.598976,14.93796489,.000102,97.5787,70.6536,108.9518,251.1813,0,U,40013,999,64205,.93377E-4,.936E-5,0
BUGSAT-1 (TITA),2014-033E,2026-07-16T05:09:47.320992,15.15887482,.0028935,98.0437,291.4674,82.5645,277.8872,0,U,40014,999,66023,.20788E-3,.3945E-4,0
SAUDISAT 4,2014-033G,2026-07-16T03:09:23.753088,14.79576020,.0044177,97.7619,342.2713,340.9956,18.9605,0,U,40016,999,65035,.34846E-4,.212E-5,0
APRIZESAT 9,2014-033J,2026-07-16T04:32:53.952576,14.74253278,.0067464,97.9096,329.6847,106.8088,254.0536,0,U,40018,999,64783,.51525E-4,.301E-5,0
BRITE-CA1 (TORONTO),2014-033L,2026-07-15T20:18:13.453056,14.72723276,.0078484,97.9773,325.2513,184.1727,175.8836,0,U,40020,999,64643,.84679E-4,.513E-5,0
DUCHIFAT-1,2014-033M,2026-07-16T03:00:49.893408,15.71200075,.000277,98.0416,260.5020,239.6354,120.4633,0,U,40021,999,66028,.6852E-3,.87055E-3,0
NANOSATC-BR1,2014-033Q,2026-07-16T01:50:01.517280,15.32346233,.0005282,98.0707,232.0424,94.1088,266.0755,0,U,40024,999,65840,.30166E-3,.9337E-4,0
