GOMX-1                  
1 39430U 13066Q   26197.19255281  .00000594  00000+0  96202-4 0  9993
2 39430  97.6464  35.8247 0128167 344.9990  14.7429 14.69543658674172
CUBEBUG-2 (LO-74)       
1 39440U 13066AA  26196.86496092  .00002083  00000+0  19551-3 0  9990
2 39440  97.8915 145.9709 0055630 293.0759  66.4601 14.93969667681277
NEE-02 KRYSAOR          
1 39441U 13066AB  26197.08287100  .00001115  00000+0  12704-3 0  9992
2 39441  97.8897 136.0946 0065323 336.3601  23.4616 14.86741190680491
FUNCUBE-1 (AO-73)       
1 39444U 13066AE  26196.88912523  .00003677  00000+0  22787-3 0  9993
2 39444  97.8290 168.9436 0037989 105.4335 255.1095 15.09822727683990
UWE-3                   
1 39446U 13066AG  26196.82148462  .00001951  00000+0  17026-3 0  9995
2 39446  97.8715 153.0945 0047549 222.4036 137.3508 14.97201399681861
SMDC ONE 2.4            
1 39469U 13072H   26196.71156278  .00009338  00000+0  34737-3 0  9994
2 39469 120.4897 102.2633 0148109  49.0550 312.3239 15.18822636122164
COSMOS 2488 (RODNIK-S 7)
1 39483U 13076A   26197.17728765 -.00000051  00000+0 -44122-3 0  9995
2 39483  82.4856 150.6350 0020560  35.4860 324.7583 12.42906038569491
COSMOS 2489 (RODNIK-S 8)
1 39484U 13076B   26197.23359682 -.00000031  00000+0 -29851-3 0  9991
2 39484  82.4891 151.9883 0022384  35.0707 325.1842 12.42879909569554
COSMOS 2490 (RODNIK-S 9)
1 39485U 13076C   26197.20552455 -.00000067  00000+0 -55865-3 0  9995
2 39485  82.4839 150.0606 0022773  50.0391 310.2684 12.42878780569485
KAZEOSAT 1              
1 39731U 14024A   26196.95541237 -.00000081  00000+0 -11747-4 0  9998
2 39731  98.3203 268.6850 0001225  82.1571 277.9758 14.42036823642706
COSMOS 2496 (RODNIK-S *)
1 39761U 14028A   26196.92151160  .00000040  00000+0  22105-3 0  9996
2 39761  82.4456  90.7352 0020830  19.3795 340.8072 12.42879267551081
COSMOS 2497 (RODNIK-S *)
1 39762U 14028B   26196.97692294 -.00000023  00000+0 -23641-3 0  9999
2 39762  82.4506  92.4013 0021315  14.3082 345.8597 12.42894847551093
COSMOS 2498 (RODNIK-S *)
1 39763U 14028C   26196.95253544 -.00000004  00000+0 -10146-3 0  9994
2 39763  82.4466  90.8912 0022019  13.9069 346.2613 12.42980616551129
HODOYOSHI-4             
1 40011U 14033B   26197.14843588  .00001003  00000+0  11400-3 0  9995
2 40011  97.5453  20.5745 0022680 206.1866 153.8206 14.88192558653113
UNISAT-6                
1 40012U 14033C   26196.97549730  .00001093  00000+0  12208-3 0  9994
2 40012  97.7909 349.1880 0044121 335.1542  24.7549 14.88368249650441
DEIMOS-2                
1 40013U 14033D   26197.18835184  .00000936  00000+0  93377-4 0  9992
2 40013  97.5787  70.6536 0001020 108.9518 251.1813 14.93796489642053
BUGSAT-1 (TITA)         
1 40014U 14033E   26197.21513103  .00003945  00000+0  20788-3 0  9999
2 40014  98.0437 291.4674 0028935  82.5645 277.8872 15.15887482660239
SAUDISAT 4              
1 40016U 14033G   26197.13152492  .00000212  00000+0  34846-4 0  9997
2 40016  97.7619 342.2713 0044177 340.9956  18.9605 14.79576020650352
APRIZESAT 9             
1 40018U 14033J   26197.18951334  .00000301  00000+0  51525-4 0  9998
2 40018  97.9096 329.6847 0067464 106.8088 254.0536 14.74253278647838
BRITE-CA1 (TORONTO)     
1 40020U 14033L   26196.84598904  .00000513  00000+0  84679-4 0  9994
2 40020  97.9773 325.2513 0078484 184.1727 175.8836 14.72723276646434
DUCHIFAT-1              
1 40021U 14033M   26197.12557747  .00087055  00000+0  68520-3 0  9999
2 40021  98.0416 260.5020 0002770 239.6354 120.4633 15.71200075660289
NANOSATC-BR1            
1 40024U 14033Q   26197.07640645  .00009337  00000+0  30166-3 0  9998
2 40024  98.0707 232.0424 0005282  94.1088 266.0755 15.32346233658403
